IRIDIUM 136             
1 42962U 17061H   23287.42451378  .00000673  00000+0  23314-3 0  9995
2 42962  86.3939  73.4457 0002134  85.6573 274.4867 14.34218917314834
